#aV2024  5 14  0  0  0.00000000     288 DD+AD WGS84 FIT  NGA
## 2314 172800.00000000   300.00000000 60444 0.0000000000000
+   31     2  3  4  5  6  7  8  9 10 11 12 13 14 15 16 17 18
+         19 20 21 22 23 24 25 26 27 28 29 30 31 32  0  0  0
+          0  0  0  0  0  0  0  0  0  0  0  0  0  0  0  0  0
+          0  0  0  0  0  0  0  0  0  0  0  0  0  0  0  0  0
+          0  0  0  0  0  0  0  0  0  0  0  0  0  0  0  0  0
++         2  2  2  2  2  2  2  2  2  2  2  2  2  2  2  2  2
++         2  2  2  2  2  2  2  2  2  2  2  2  2  2  0  0  0
++         0  0  0  0  0  0  0  0  0  0  0  0  0  0  0  0  0
++         0  0  0  0  0  0  0  0  0  0  0  0  0  0  0  0  0
++         0  0  0  0  0  0  0  0  0  0  0  0  0  0  0  0  0
%c cc cc ccc ccc cccc cccc cccc cccc ccccc ccccc ccccc ccccc
%c cc cc ccc ccc cccc cccc cccc cccc ccccc ccccc ccccc ccccc
%f  0.0000000  0.000000000  0.00000000000  0.000000000000000
%f  0.0000000  0.000000000  0.00000000000  0.000000000000000
%i    0    0    0    0      0      0      0      0         0
%i    0    0    0    0      0      0      0      0         0
/*      NGA, ST. LOUIS,MO.                                  
/*   EPHEMERIS COMPUTED FROM 2 DAYS OF DATA                 
/*   EPOCHA v9 SMOOTHER                                     
/*   G2296 IERS2010 SATIGS SATAPC                           
*  2024  5 14 12 10  0.00000000
P  2  14729.005626 -21827.614688   2396.347581   -436.388869                    
V  2   1173.715194   3570.563878  31897.953879      0.067610                    
P  3  11194.711496 -12683.026868 -20596.591388    362.790387                    
V  3  25585.575687   3221.000048  12132.297875      0.194313                    
P  4   4530.660864 -19760.643533 -17071.902911    360.836050                    
V  4  10060.007394  19368.741112 -19857.871405      0.084328                    
P  5 -23746.425771   5968.774293  10225.299495   -172.668139                    
V  5 -13095.454484  -2737.883782 -28232.605408     -0.013653                    
P  6 -12994.359067  -6796.672688 -22088.679202    273.645758                    
V  6  16447.460504 -22793.699864  -2547.176782     -0.195609                    
P  7    787.052812 -21192.394377  16208.031825   -128.638598                    
V  7  13308.861731 -14917.752936 -21282.030299     -0.081762                    
P  8  11453.799042 -10786.383123  21237.355053    177.613015                    
V  8  12943.837138  24061.227923   5632.117604      0.204291                    
P  9  -6536.868908 -24713.460197  -7188.274831    195.979235                    
V  9   6479.077718   6885.248630 -29944.625209      0.140977                    
P 10  20598.713180  10791.939215  13332.837526    -22.984557                    
V 10 -16481.684171   -130.831621  25663.426634     -0.064514                    
P 11 -19484.599681   5867.312593 -17020.134768   -661.868454                    
V 11  11981.182156 -18126.078163 -19987.072052     -0.093343                    
P 12 -13736.224091  11708.250502 -19750.822582   -505.255506                    
V 12 -23982.855321  -5043.881842  13941.098573     -0.033165                    
P 13 -15070.589953   1273.092549  21645.284525    650.408300                    
V 13  -7839.081868 -26802.401195  -3618.252055      0.029074                    
P 14 -17183.074424 -13238.992863  15498.473971    400.483005                    
V 14  19694.094666    127.619829  21781.820814      0.093289                    
P 15 -10110.848733  12382.981744  20690.868141    158.919543                    
V 15 -15889.203343 -22522.348712   5776.416540      0.041270                    
P 16  25714.600778   -463.925912   7174.128448   -291.912144                    
V 16   8885.798205   3950.425872 -29743.029421      0.099372                    
P 17 -12854.888968 -22348.945812  -5603.488284    706.372965                    
V 17   -301.222833  -8125.485989  30964.510351     -0.031901                    
P 18  -1168.011619  20624.591557  16592.932539   -610.421713                    
V 18 -13832.843019  16013.314205 -21081.248903     -0.057981                    
P 19 -15920.399992 -16103.913935 -14371.512911    481.913789                    
V 19  -4163.337929 -17353.990559  23986.185966      0.053432                    
P 20 -26407.569667   1854.309441   -574.391241    376.621495                    
V 20    532.977190  -3224.773196 -31686.668193     -0.013799                    
P 21  16787.893163 -18593.140466   7508.584888    121.681552                    
V 21  -1686.269325   9668.829629  30441.355631     -0.022273                    
P 22 -22374.589549 -10772.041114   9422.354671    -13.462368                    
V 22  11753.774348   -550.946623  28841.747154     -0.052905                    
P 23   9262.532502  14331.491314  20430.279714    225.169071                    
V 23 -25777.606580   -872.025859  12122.581076      0.094343                    
P 24 -14918.917081  21402.457218   3184.428751   -469.496185                    
V 24  -1216.691716  -6002.865521  31057.000023     -0.035106                    
P 25  -2850.693537  15386.057539 -21787.506704    495.697395                    
V 25 -26822.920128  -2280.027221   2189.368539      0.006784                    
P 26  25625.429029   4836.739012  -6125.691416    153.012996                    
V 26  -7577.550851   3169.542611 -29569.089850     -0.055950                    
P 27  16629.900649   1898.747314  20429.866022    -23.922708                    
V 27  10598.342116  24291.401523 -10318.380007     -0.018265                    
P 28  12022.921996   9372.132780 -21761.191376   -243.592348                    
V 28 -15277.427611  22990.185137   1459.090162     -0.162382                    
P 29   2337.621346  24680.673428  -9423.837708   -598.468365                    
V 29  -6338.996815 -10348.605694 -28950.345554      0.014117                    
P 30  -8658.230811 -14268.736422  20758.037181   -390.554998                    
V 30  15956.085764 -20779.349308  -7951.084782      0.058771                    
P 31  18267.256174  -1362.280264 -19579.932603   -227.829806                    
V 31 -13572.585076  20188.706201 -13832.620990      0.001060                    
P 32  15567.596795  20104.604180  -7807.883858   -618.245198                    
V 32   2094.964156  10238.905613  29535.979314      0.003288                    
EOF
